STARLINK-4469
1 53657U 22105K   26092.90971262  .01694358  25737-5  91918-3 0  9997
2 53657  97.6219   2.0059 0004825 181.4072 178.7203 16.19747532198573
